{
  "type": "FeatureCollection",
  "features": [
    {
      "type": "Feature",
      "properties": {
        "norad_id": 33939,
        "name": "COSMOS 2251 DEB",
        "group": "cosmos-2251-debris",
        "lat": 61.7217507971803,
        "lon": 82.31595391378293,
        "alt_km": 555.6175111712073,
        "timestamp": "2025-12-27T17:24:57.800771+00:00",
        "meta_object_name": "COSMOS 2251 DEB",
        "meta_object_id": "1993-036EU",
        "meta_epoch": "2025-12-27T05:55:26.093856",
        "meta_mean_motion": 15.00911822,
        "meta_eccentricity": 0.0005287,
        "meta_inclination": 74.0061,
        "meta_ra_of_asc_node": 51.0713,
        "meta_arg_of_pericenter": 10.4454,
        "meta_mean_anomaly": 349.6842,
        "meta_ephemeris_type": 0,
        "meta_classification_type": "U",
        "meta_norad_cat_id": 33939,
        "meta_element_set_no": 999,
        "meta_rev_at_epoch": 88970,
        "meta_bstar": 0.0030802,
        "meta_mean_motion_dot": 0.00039435,
        "meta_mean_motion_ddot": 0,
        "tle_line1": "1 33939U 93036EU  25361.24682979  .00039435  00000+0  30802-2 0  9990",
        "tle_line2": "2 33939  74.0061  51.0713 0005287  10.4454 349.6842 15.00911822889701"
      },
      "geometry": {
        "type": "Point",
        "coordinates": [
          82.31595391378293,
          61.7217507971803
        ]
      }
    },
    {
      "type": "Feature",
      "properties": {
        "norad_id": 33940,
        "name": "COSMOS 2251 DEB",
        "group": "cosmos-2251-debris",
        "lat": 58.40847502415308,
        "lon": -92.77111402974758,
        "alt_km": 689.0672388053681,
        "timestamp": "2025-12-27T17:24:57.800782+00:00",
        "meta_object_name": "COSMOS 2251 DEB",
        "meta_object_id": "1993-036EV",
        "meta_epoch": "2025-12-27T10:37:21.688896",
        "meta_mean_motion": 14.58940933,
        "meta_eccentricity": 0.0010534,
        "meta_inclination": 74.0399,
        "meta_ra_of_asc_node": 115.4996,
        "meta_arg_of_pericenter": 196.4007,
        "meta_mean_anomaly": 235.235,
        "meta_ephemeris_type": 0,
        "meta_classification_type": "U",
        "meta_norad_cat_id": 33940,
        "meta_element_set_no": 999,
        "meta_rev_at_epoch": 88808,
        "meta_bstar": 0.0012792,
        "meta_mean_motion_dot": 5.979e-05,
        "meta_mean_motion_ddot": 0,
        "tle_line1": "1 33940U 93036EV  25361.44261214  .00005979  00000+0  12792-2 0  9993",
        "tle_line2": "2 33940  74.0399 115.4996 0010534 196.4007 235.2350 14.58940933888086"
      },
      "geometry": {
        "type": "Point",
        "coordinates": [
          -92.77111402974758,
          58.40847502415308
        ]
      }
    },
    {
      "type": "Feature",
      "properties": {
        "norad_id": 33942,
        "name": "COSMOS 2251 DEB",
        "group": "cosmos-2251-debris",
        "lat": -74.02563899579626,
        "lon": 157.61782095549904,
        "alt_km": 764.0578706610277,
        "timestamp": "2025-12-27T17:24:57.800792+00:00",
        "meta_object_name": "COSMOS 2251 DEB",
        "meta_object_id": "1993-036EX",
        "meta_epoch": "2025-12-27T10:00:38.157120",
        "meta_mean_motion": 14.38008214,
        "meta_eccentricity": 0.0020887,
        "meta_inclination": 74.0358,
        "meta_ra_of_asc_node": 247.7984,
        "meta_arg_of_pericenter": 328.47,
        "meta_mean_anomaly": 145.1163,
        "meta_ephemeris_type": 0,
        "meta_classification_type": "U",
        "meta_norad_cat_id": 33942,
        "meta_element_set_no": 999,
        "meta_rev_at_epoch": 88345,
        "meta_bstar": 0.00021026,
        "meta_mean_motion_dot": 6.11e-06,
        "meta_mean_motion_ddot": 0,
        "tle_line1": "1 33942U 93036EX  25361.41710830  .00000611  00000+0  21026-3 0  9994",
        "tle_line2": "2 33942  74.0358 247.7984 0020887 328.4700 145.1163 14.38008214883450"
      },
      "geometry": {
        "type": "Point",
        "coordinates": [
          157.61782095549904,
          -74.02563899579626
        ]
      }
    },
    {
      "type": "Feature",
      "properties": {
        "norad_id": 33944,
        "name": "COSMOS 2251 DEB",
        "group": "cosmos-2251-debris",
        "lat": 63.322876228988235,
        "lon": 66.637500292792,
        "alt_km": 765.9822242441687,
        "timestamp": "2025-12-27T17:24:57.800802+00:00",
        "meta_object_name": "COSMOS 2251 DEB",
        "meta_object_id": "1993-036EZ",
        "meta_epoch": "2025-12-27T12:41:39.863040",
        "meta_mean_motion": 14.37378179,
        "meta_eccentricity": 0.0112858,
        "meta_inclination": 74.0407,
        "meta_ra_of_asc_node": 281.7172,
        "meta_arg_of_pericenter": 17.5874,
        "meta_mean_anomaly": 155.1302,
        "meta_ephemeris_type": 0,
        "meta_classification_type": "U",
        "meta_norad_cat_id": 33944,
        "meta_element_set_no": 999,
        "meta_rev_at_epoch": 88240,
        "meta_bstar": 0.00042105,
        "meta_mean_motion_dot": 1.326e-05,
        "meta_mean_motion_ddot": 0,
        "tle_line1": "1 33944U 93036EZ  25361.52893360  .00001326  00000+0  42105-3 0  9993",
        "tle_line2": "2 33944  74.0407 281.7172 0112858  17.5874 155.1302 14.37378179882401"
      },
      "geometry": {
        "type": "Point",
        "coordinates": [
          66.637500292792,
          63.322876228988235
        ]
      }
    },
    {
      "type": "Feature",
      "properties": {
        "norad_id": 33945,
        "name": "COSMOS 2251 DEB",
        "group": "cosmos-2251-debris",
        "lat": 60.55339935034791,
        "lon": 68.32777590338785,
        "alt_km": 776.5727070974917,
        "timestamp": "2025-12-27T17:24:57.800813+00:00",
        "meta_object_name": "COSMOS 2251 DEB",
        "meta_object_id": "1993-036FA",
        "meta_epoch": "2025-12-27T11:51:43.962048",
        "meta_mean_motion": 14.34612689,
        "meta_eccentricity": 0.0022556,
        "meta_inclination": 74.0302,
        "meta_ra_of_asc_node": 279.2319,
        "meta_arg_of_pericenter": 1.8091,
        "meta_mean_anomaly": 358.3138,
        "meta_ephemeris_type": 0,
        "meta_classification_type": "U",
        "meta_norad_cat_id": 33945,
        "meta_element_set_no": 999,
        "meta_rev_at_epoch": 88227,
        "meta_bstar": 0.00015143,
        "meta_mean_motion_dot": 4.03e-06,
        "meta_mean_motion_ddot": 0,
        "tle_line1": "1 33945U 93036FA  25361.49425882  .00000403  00000+0  15143-3 0  9997",
        "tle_line2": "2 33945  74.0302 279.2319 0022556   1.8091 358.3138 14.34612689882276"
      },
      "geometry": {
        "type": "Point",
        "coordinates": [
          68.32777590338785,
          60.55339935034791
        ]
      }
    },
    {
      "type": "Feature",
      "properties": {
        "norad_id": 33948,
        "name": "COSMOS 2251 DEB",
        "group": "cosmos-2251-debris",
        "lat": 18.55863406018167,
        "lon": -76.84606301757898,
        "alt_km": 758.2734550913437,
        "timestamp": "2025-12-27T17:24:57.800824+00:00",
        "meta_object_name": "COSMOS 2251 DEB",
        "meta_object_id": "1993-036FD",
        "meta_epoch": "2025-12-27T03:56:51.236160",
        "meta_mean_motion": 14.35646381,
        "meta_eccentricity": 0.00233674,
        "meta_inclination": 74.036,
        "meta_ra_of_asc_node": 278.6683,
        "meta_arg_of_pericenter": 351.1481,
        "meta_mean_anomaly": 8.9256,
        "meta_ephemeris_type": 0,
        "meta_classification_type": "U",
        "meta_norad_cat_id": 33948,
        "meta_element_set_no": 999,
        "meta_rev_at_epoch": 88230,
        "meta_bstar": 0.00022294756,
        "meta_mean_motion_dot": 6.19e-06,
        "meta_mean_motion_ddot": 0,
        "tle_line1": "1 33948U 93036FD  25361.16448190  .00000619  00000+0  22295-3 0  9996",
        "tle_line2": "2 33948  74.0360 278.6683 0023367 351.1481   8.9256 14.35646381882305"
      },
      "geometry": {
        "type": "Point",
        "coordinates": [
          -76.84606301757898,
          18.55863406018167
        ]
      }
    },
    {
      "type": "Feature",
      "properties": {
        "norad_id": 33971,
        "name": "COSMOS 2251 DEB",
        "group": "cosmos-2251-debris",
        "lat": -49.22691366673612,
        "lon": -153.3659667760299,
        "alt_km": 752.7509085840165,
        "timestamp": "2025-12-27T17:24:57.800834+00:00",
        "meta_object_name": "COSMOS 2251 DEB",
        "meta_object_id": "1993-036FE",
        "meta_epoch": "2025-12-27T10:07:27.998976",
        "meta_mean_motion": 14.39749798,
        "meta_eccentricity": 0.0019078,
        "meta_inclination": 74.0235,
        "meta_ra_of_asc_node": 226.5986,
        "meta_arg_of_pericenter": 324.8108,
        "meta_mean_anomaly": 209.2693,
        "meta_ephemeris_type": 0,
        "meta_classification_type": "U",
        "meta_norad_cat_id": 33971,
        "meta_element_set_no": 999,
        "meta_rev_at_epoch": 88350,
        "meta_bstar": 0.00026485,
        "meta_mean_motion_dot": 8.05e-06,
        "meta_mean_motion_ddot": 0,
        "tle_line1": "1 33971U 93036FE  25361.42185184  .00000805  00000+0  26485-3 0  9994",
        "tle_line2": "2 33971  74.0235 226.5986 0019078 324.8108 209.2693 14.39749798883501"
      },
      "geometry": {
        "type": "Point",
        "coordinates": [
          -153.3659667760299,
          -49.22691366673612
        ]
      }
    }
  ]
}